GLOBALSTAR M023         
1 25621U 99004A   24302.72710104 -.00000066  00000+0  21157-3 0  9992
2 25621  52.0130  38.2332 0009637 338.2044 178.7508 12.62480601186493
GLOBALSTAR M038         
1 25624U 99004D   24302.67044314 -.00000035  00000+0  49618-3 0  9990
2 25624  52.0003  18.3050 0001344 289.3765 236.3908 12.32511839173827
GLOBALSTAR M022         
1 25649U 99012A   24302.92204436 -.00000091  00000+0 -55021-4 0  9996
2 25649  52.0030 199.5825 0003236  69.5621  41.3092 12.02489977148551
GLOBALSTAR M046         
1 25651U 99012C   24302.95059646  .00000024  00000+0  12420-2 0  9991
2 25651  52.0031 158.0802 0002778 129.0030  13.0718 12.09401412155684
GLOBALSTAR M037         
1 25652U 99012D   24302.92495769 -.00000046  00000+0  32381-3 0  9993
2 25652  51.9984 168.3352 0002784  49.7633  72.8560 12.62422620182061
